H1 CPF  2  SHA 2024 11 20  0  325 01 beidou3m2       NONE
H2  1706902 2014    43002 2024 11 20  0  0  0 2024 11 28 23 55  0   300 1 1  0 0 0 1
H9
10 0 60639  57600.00000  0   13877918.775  -22109394.835    9903403.334
10 0 60639  57900.00000  0   14124262.264  -22320914.197    9043807.177
10 0 60639  58200.00000  0   14345173.023  -22516543.605    8169302.381
10 0 60639  58500.00000  0   14541117.235  -22694951.708    7281330.639
10 0 60639  58800.00000  0   14712647.582  -22854849.533    6381355.804
10 0 60639  59100.00000  0   14860400.633  -22994995.719    5470861.480
10 0 60639  59400.00000  0   14985093.903  -23114201.574    4551348.589
10 0 60639  59700.00000  0   15087522.600  -23211335.934    3624332.899
10 0 60639  60000.00000  0   15168556.076  -23285329.815    2691342.541
10 0 60639  60300.00000  0   15229133.992  -23335180.816    1753915.488
10 0 60639  60600.00000  0   15270262.214  -23359957.286     813597.039
10 0 60639  60900.00000  0   15293008.458  -23358802.214    -128062.729
10 0 60639  61200.00000  0   15298497.692  -23330936.836   -1069511.508
10 0 60639  61500.00000  0   15287907.328  -23275663.955   -2009197.303
10 0 60639  61800.00000  0   15262462.207  -23192370.936   -2945570.993
10 0 60639  62100.00000  0   15223429.414  -23080532.394   -3877088.868
10 0 60639  62400.00000  0   15172112.920  -22939712.539   -4802215.176
10 0 60639  62700.00000  0   15109848.101  -22769567.186   -5719424.640
10 0 60639  63000.00000  0   15037996.125  -22569845.411   -6627204.972
10 0 60639  63300.00000  0   14957938.258  -22340390.855   -7524059.354
10 0 60639  63600.00000  0   14871070.085  -22081142.662   -8408508.906
10 0 60639  63900.00000  0   14778795.692  -21792136.057   -9279095.115
10 0 60639  64200.00000  0   14682521.810  -21473502.555  -10134382.238
10 0 60639  64500.00000  0   14583651.965  -21125469.796  -10972959.657
10 0 60639  64800.00000  0   14483580.639  -20748361.025  -11793444.209
10 0 60639  65100.00000  0   14383687.476  -20342594.190  -12594482.459
10 0 60639  65400.00000  0   14285331.553  -19908680.690  -13374752.927
10 0 60639  65700.00000  0   14189845.733  -19447223.760  -14132968.269
10 0 60639  66000.00000  0   14098531.133  -18958916.502  -14867877.391
10 0 60639  66300.00000  0   14012651.716  -18444539.578  -15578267.517
10 0 60639  66600.00000  0   13933429.043  -17904958.563  -16262966.182
10 0 60639  66900.00000  0   13862037.185  -17341120.971  -16920843.170
10 0 60639  67200.00000  0   13799597.841  -16754052.973  -17550812.379
10 0 60639  67500.00000  0   13747175.658  -16144855.810  -18151833.606
10 0 60639  67800.00000  0   13705773.780  -15514701.918  -18722914.273
10 0 60639  68100.00000  0   13676329.653  -14864830.781  -19263111.064
10 0 60639  68400.00000  0   13659711.085  -14196544.529  -19771531.481
10 0 60639  68700.00000  0   13656712.587  -13511203.295  -20247335.326
10 0 60639  69000.00000  0   13668052.011  -12810220.350  -20689736.087
10 0 60639  69300.00000  0   13694367.491  -12095057.035  -21098002.246
10 0 60639  69600.00000  0   13736214.706  -11367217.511  -21471458.490
10 0 60639  69900.00000  0   13794064.467  -10628243.343  -21809486.832
10 0 60639  70200.00000  0   13868300.652   -9879707.945  -22111527.644
10 0 60639  70500.00000  0   13959218.480   -9123210.902  -22377080.581
10 0 60639  70800.00000  0   14067023.144   -8360372.192  -22605705.428
10 0 60639  71100.00000  0   14191828.803   -7592826.337  -22797022.827
10 0 60639  71400.00000  0   14333657.937   -6822216.489  -22950714.920
10 0 60639  71700.00000  0   14492441.072   -6050188.500  -23066525.888
10 0 60639  72000.00000  0   14668016.863   -5278384.970  -23144262.379
10 0 60639  72300.00000  0   14860132.560   -4508439.319  -23183793.848
10 0 60639  72600.00000  0   15068444.826   -3741969.887  -23185052.784
10 0 60639  72900.00000  0   15292520.928   -2980574.112  -23148034.834
10 0 60639  73200.00000  0   15531840.279   -2225822.767  -23072798.828
10 0 60639  73500.00000  0   15785796.337   -1479254.325  -22959466.697
10 0 60639  73800.00000  0   16053698.849    -742369.440  -22808223.286
10 0 60639  74100.00000  0   16334776.432     -16625.575  -22619316.062
10 0 60639  74400.00000  0   16628179.478     696568.194  -22393054.729
10 0 60639  74700.00000  0   16932983.379    1395856.187  -22129810.723
10 0 60639  75000.00000  0   17248192.054    2079940.920  -21830016.618
10 0 60639  75300.00000  0   17572741.761    2747587.677  -21494165.426
10 0 60639  75600.00000  0   17905505.193    3397628.838  -21122809.799
10 0 60639  75900.00000  0   18245295.823    4028967.941  -20716561.128
10 0 60639  76200.00000  0   18590872.499    4640583.467  -20276088.544
10 0 60639  76500.00000  0   18940944.257    5231532.335  -19802117.831
10 0 60639  76800.00000  0   19294175.347    5800953.088  -19295430.236
10 0 60639  77100.00000  0   19649190.435    6348068.759  -18756861.184
10 0 60639  77400.00000  0   20004579.978    6872189.408  -18187298.918
10 0 60639  77700.00000  0   20358905.744    7372714.321  -17587683.029
10 0 60639  78000.00000  0   20710706.446    7849133.854  -16959002.918
10 0 60639  78300.00000  0   21058503.491    8301030.934  -16302296.163
10 0 60639  78600.00000  0   21400806.791    8728082.183  -15618646.811
10 0 60639  78900.00000  0   21736120.646    9130058.686  -14909183.590
10 0 60639  79200.00000  0   22062949.648    9506826.390  -14175078.044
10 0 60639  79500.00000  0   22379804.594    9858346.127  -13417542.598
10 0 60639  79800.00000  0   22685208.398   10184673.272  -12637828.553
10 0 60639  80100.00000  0   22977701.950   10485957.028  -11837224.015
10 0 60639  80400.00000  0   23255849.923   10762439.352  -11017051.763
10 0 60639  80700.00000  0   23518246.496   11014453.508  -10178667.054
10 0 60639  81000.00000  0   23763520.973   11242422.276   -9323455.382
10 0 60639  81300.00000  0   23990343.267   11446855.802   -8452830.173
10 0 60639  81600.00000  0   24197429.245   11628349.115   -7568230.446
10 0 60639  81900.00000  0   24383545.894   11787579.309   -6671118.417
10 0 60639  82200.00000  0   24547516.301   11925302.412   -5762977.076
10 0 60639  82500.00000  0   24688224.419   12042349.936   -4845307.721
10 0 60639  82800.00000  0   24804619.606   12139625.148   -3919627.462
10 0 60639  83100.00000  0   24895720.916   12218099.054   -2987466.701
10 0 60639  83400.00000  0   24960621.128   12278806.122   -2050366.586
10 0 60639  83700.00000  0   24998490.486   12322839.764   -1109876.450
10 0 60639  84000.00000  0   25008580.159   12351347.583    -167551.232
10 0 60639  84300.00000  0   24990225.375   12365526.416     775051.105
10 0 60639  84600.00000  0   24942848.249   12366617.191    1716372.168
10 0 60639  84900.00000  0   24865960.271   12355899.608    2654855.725
10 0 60639  85200.00000  0   24759164.449   12334686.676    3588950.291
10 0 60639  85500.00000  0   24622157.111   12304319.128    4517111.708
10 0 60639  85800.00000  0   24454729.340   12266159.727    5437805.712
10 0 60639  86100.00000  0   24256768.052   12221587.492    6349510.480
10 0 60640      0.00000  0   24028256.702   12171991.867    7250719.161
10 0 60640    300.00000  0   23769275.619   12118766.854    8139942.375
10 0 60640    600.00000  0   23480001.976   12063305.135    9015710.687
10 0 60640    900.00000  0   23160709.380   12006992.204    9876577.044
10 0 60640   1200.00000  0   22811767.098   11951200.534   10721119.175
10 0 60640   1500.00000  0   22433638.909   11897283.800   11547941.946
10 0 60640   1800.00000  0   22026881.603   11846571.187   12355679.673
10 0 60640   2100.00000  0   21592143.114   11800361.796   13142998.382
10 0 60640   2400.00000  0   21130160.308   11759919.176   13908598.015
10 0 60640   2700.00000  0   20641756.434   11726466.004   14651214.578
10 0 60640   3000.00000  0   20127838.234   11701178.931   15369622.230
10 0 60640   3300.00000  0   19589392.745   11685183.616   16062635.304
10 0 60640   3600.00000  0   19027483.787   11679549.969   16729110.264
10 0 60640   3900.00000  0   18443248.160   11685287.617   17367947.589
10 0 60640   4200.00000  0   17837891.565   11703341.613   17978093.579
10 0 60640   4500.00000  0   17212684.256   11734588.412   18558542.091
10 0 60640   4800.00000  0   16568956.458   11779832.116   19108336.188
10 0 60640   5100.00000  0   15908093.546   11839801.015   19626569.714
10 0 60640   5400.00000  0   15231531.023   11915144.428   20112388.771
10 0 60640   5700.00000  0   14540749.308   12006429.869   20564993.123
10 0 60640   6000.00000  0   13837268.353   12114140.528   20983637.500
10 0 60640   6300.00000  0   13122642.112   12238673.106   21367632.815
10 0 60640   6600.00000  0   12398452.890   12380335.983   21716347.287
10 0 60640   6900.00000  0   11666305.581   12539347.746   22029207.465
10 0 60640   7200.00000  0   10927821.827   12715836.072   22305699.163
10 0 60640   7500.00000  0   10184634.119   12909836.983   22545368.287
10 0 60640   7800.00000  0    9438379.858   13121294.455   22747821.574
10 0 60640   8100.00000  0    8690695.411   13350060.405   22912727.217
10 0 60640   8400.00000  0    7943210.168   13595895.041   23039815.400
10 0 60640   8700.00000  0    7197540.633   13858467.580   23128878.725
10 0 60640   9000.00000  0    6455284.580   14137357.328   23179772.539
10 0 60640   9300.00000  0    5718015.276   14432055.120   23192415.157
10 0 60640   9600.00000  0    4987275.811   14741965.115   23166787.976
10 0 60640   9900.00000  0    4264573.547   15066406.937   23102935.499
10 0 60640  10200.00000  0    3551374.717   15404618.154   23000965.239
10 0 60640  10500.00000  0    2849099.180   15755757.081   22861047.536
10 0 60640  10800.00000  0    2159115.368   16118905.911   22683415.256
10 0 60640  11100.00000  0    1482735.436   16493074.143   22468363.399
10 0 60640  11400.00000  0     821210.632   16877202.302   22216248.600
10 0 60640  11700.00000  0     175726.912   17270165.942   21927488.532
99